{
    "line1": "1     1U          20  1.00000000  .00000000  00000-0  00000-0 0    07",
    "line2": "2     1  90.0000   0.0000 0010000   0.0000   0.0000 15.21936719    07"
}